OBJECT_NAME,OBJECT_ID,EPOCH,MEAN_MOTION,ECCENTRICITY,INCLINATION,RA_OF_ASC_NODE,ARG_OF_PERICENTER,MEAN_ANOMALY,EPHEMERIS_TYPE,CLASSIFICATION_TYPE,NORAD_CAT_ID,ELEMENT_SET_NO,REV_AT_EPOCH,BSTAR,MEAN_MOTION_DOT,MEAN_MOTION_DDOT
ALOS-2,2014-029A,2026-06-15T23:44:45.028320,14.79467614,.00016468,97.9225,264.1696,91.7166,268.4234,0,U,39766,999,65140,.14824107E-3,.1056E-4,0
KAZEOSAT 2,2014-033A,2026-06-15T22:48:16.465248,14.85467355,.00080144,97.5404,6.6280,334.0174,26.0639,0,U,40010,999,64877,.3433208E-5,-.21E-6,0
HODOYOSHI-4,2014-033B,2026-06-15T22:59:50.888832,14.88128313,.00225615,97.5448,351.8405,312.9360,46.9964,0,U,40011,999,64862,.14503007E-3,.1288E-4,0
DEIMOS-2,2014-033D,2026-06-15T21:50:55.999104,14.93721453,.00015103,97.5833,41.4446,46.6719,313.4627,0,U,40013,999,63753,.11146438E-3,.1125E-4,0
HODOYOSHI-3,2014-033F,2026-06-15T23:20:21.319008,14.85386454,.0032809,97.6416,330.0619,1.3149,358.8147,0,U,40015,999,64744,.10832857E-3,.888E-5,0
SPOT 7,2014-034A,2026-06-15T22:46:14.210976,14.60957009,.00012134,98.0635,229.4721,91.3761,268.7579,0,U,40053,999,63695,.61887443E-4,.258E-5,0
SKYSAT-B,2014-037D,2026-06-15T21:57:14.083776,14.88025001,.00042399,98.3839,125.8071,287.2495,72.8255,0,U,40072,999,64577,.13482503E-3,.1177E-4,0
WORLDVIEW-3 (WV-3),2014-048A,2026-06-15T21:17:28.661856,14.85020122,.00010939,97.8567,241.7379,27.8439,332.2834,0,U,40115,999,64171,.88103415E-4,.698E-5,0
GAOFEN-2,2014-049A,2026-06-15T23:02:35.275200,14.80898084,.00060487,98.0117,231.1683,231.7080,128.3588,0,U,40118,999,63905,.81556012E-4,.577E-5,0
YAOGAN-21,2014-053A,2026-06-15T23:34:54.588000,15.26358348,.00098956,97.1474,207.2692,96.8890,263.3476,0,U,40143,999,65477,.25020294E-3,.6443E-4,0
YAOGAN-22,2014-063A,2026-06-15T23:15:10.482048,13.15531114,.00063143,100.7722,318.2218,188.0287,172.0724,0,U,40275,999,55965,-.10717082E-4,-.51E-6,0
ASNARO,2014-070A,2026-06-15T23:22:22.787040,15.19415643,.00053558,97.3458,243.1204,168.5594,191.5764,0,U,40298,999,64382,.2268852E-3,.474E-4,0
YAOGAN-24,2014-072A,2026-06-15T22:18:56.002176,14.76220694,.00125545,98.1482,304.2569,268.3704,91.6067,0,U,40310,999,62353,.58875181E-4,.354E-5,0
CBERS 4,2014-079A,2026-06-15T23:48:01.443168,14.35508234,.00018672,98.3537,223.8605,65.1009,295.0371,0,U,40336,999,60378,.7363826E-5,-.21E-6,0
YAOGAN-26,2014-088A,2026-06-15T23:16:05.257056,15.47303417,.00060492,97.0639,167.2060,69.8496,290.3405,0,U,40362,999,63751,.27711077E-3,.14065E-3,0
SMAP,2015-003A,2026-06-15T23:39:39.220704,14.63365736,.00013101,98.1276,174.0974,96.2183,263.9168,0,U,40376,999,60744,.7818136E-4,.357E-5,0
KOMPSAT-3A,2015-014A,2026-06-15T22:53:43.668960,15.53943201,.00563751,97.6883,158.2263,178.9763,181.1615,0,U,40536,999,62162,.32089328E-3,.22109E-3,0
SENTINEL-2A,2015-028A,2026-06-15T22:56:33.884736,14.30814783,.00010929,98.5691,241.8248,89.5409,270.5900,0,U,40697,999,57355,.43024776E-4,.69E-6,0
GAOFEN-8,2015-030A,2026-06-15T23:41:49.992288,15.45921948,.00084858,97.6897,0.2858,191.3522,168.7536,0,U,40701,999,61126,.41757601E-3,.20271E-3,0
CARBONITE 1 (CBNT-1),2015-032D,2026-06-15T23:14:37.486752,14.83583260,.00132876,97.6497,345.0860,302.5675,57.4256,0,U,40718,999,58916,.15706457E-3,.1245E-4,0
YAOGAN-27,2015-040A,2026-06-15T23:08:32.877888,13.16067661,.00076635,100.1143,153.3997,213.5524,146.5105,0,U,40878,999,51750,-.1308539E-2,-.539E-5,0
GAOFEN-9 01,2015-047A,2026-06-15T23:35:25.483776,14.82881786,.00283223,97.6275,202.7324,141.5990,218.7247,0,U,40894,999,58001,.10838129E-3,.833E-5,0
YAOGAN-28,2015-064A,2026-06-15T22:43:40.170144,15.27406775,.00105006,97.3076,305.2334,187.5525,172.5558,0,U,41026,999,59049,.20564402E-3,.5452E-4,0
YAOGAN-29,2015-069A,2026-06-15T23:07:16.648896,14.83083694,.00026285,98.0025,195.5940,57.0651,303.0815,0,U,41038,999,57044,.507739E-4,.359E-5,0
KENT RIDGE 1,2015-077B,2026-06-15T15:46:26.675616,15.23124673,.00082377,14.9790,277.3724,216.8531,143.1225,0,U,41167,999,58086,.12259081E-3,.3746E-4,0
GAOFEN-4,2015-083A,2026-06-15T22:07:05.731104,1.00269351,.00043813,0.3535,83.7847,115.3692,142.5180,0,U,41194,999,3851,0,-.334E-5,0
JASON-3,2016-002A,2026-06-15T21:57:57.821184,12.87628039,.00085304,66.0401,128.5090,272.8530,87.1513,0,U,41240,999,48708,-.47586078E-4,-.74E-6,0
SENTINEL-3A,2016-011A,2026-06-15T21:13:05.294784,14.26739625,.00013932,98.6249,234.2864,102.1373,257.9964,0,U,41335,999,53787,.55337043E-4,.9E-6,0
ZIYUAN 3-02 (ZY 3-02),2016-033A,2026-06-15T22:33:45.327744,15.21471473,.00112099,97.3838,242.7388,294.6598,65.3470,0,U,41556,999,55779,.20157883E-3,.4469E-4,0
CARTOSAT-2C,2016-040A,2026-06-15T22:34:43.934592,15.19182769,.00099491,97.4489,226.9359,133.8755,226.3303,0,U,41599,999,55352,.15271839E-3,.3147E-4,0
