ALOS-2                  
1 39766U 14029A   26166.98941005  .00001056  00000+0  14824-3 0  9997
2 39766  97.9225 264.1696 0001646  91.7166 268.4234 14.79467614651402
KAZEOSAT 2              
1 40010U 14033A   26166.95019057 -.00000021  00000+0  34332-5 0  9996
2 40010  97.5404   6.6280 0008014 334.0174  26.0639 14.85467355648779
HODOYOSHI-4             
1 40011U 14033B   26166.95822788  .00001288  00000+0  14503-3 0  9991
2 40011  97.5448 351.8405 0022561 312.9360  46.9964 14.88128313648624
DEIMOS-2                
1 40013U 14033D   26166.91037036  .00001125  00000+0  11146-3 0  9993
2 40013  97.5833  41.4446 0001510  46.6719 313.4627 14.93721453637537
HODOYOSHI-3             
1 40015U 14033F   26166.97246897  .00000888  00000+0  10833-3 0  9995
2 40015  97.6416 330.0619 0032809   1.3149 358.8147 14.85386454647446
SPOT 7                  
1 40053U 14034A   26166.94877559  .00000258  00000+0  61887-4 0  9997
2 40053  98.0635 229.4721 0001213  91.3761 268.7579 14.60957009636950
SKYSAT-B                
1 40072U 14037D   26166.91474634  .00001177  00000+0  13483-3 0  9994
2 40072  98.3839 125.8071 0004239 287.2495  72.8255 14.88025001645771
WORLDVIEW-3 (WV-3)      
1 40115U 14048A   26166.88713729  .00000698  00000+0  88103-4 0  9990
2 40115  97.8567 241.7379 0001093  27.8439 332.2834 14.85020122641713
GAOFEN-2                
1 40118U 14049A   26166.96013050  .00000577  00000+0  81556-4 0  9994
2 40118  98.0117 231.1683 0006048 231.7080 128.3588 14.80898084639053
YAOGAN-21               
1 40143U 14053A   26166.98257625  .00006443  00000+0  25020-3 0  9998
2 40143  97.1474 207.2692 0009895  96.8890 263.3476 15.26358348654770
YAOGAN-22               
1 40275U 14063A   26166.96887132 -.00000051  00000+0 -10717-4 0  9994
2 40275 100.7722 318.2218 0006314 188.0287 172.0724 13.15531114559650
ASNARO                  
1 40298U 14070A   26166.97387485  .00004740  00000+0  22689-3 0  9991
2 40298  97.3458 243.1204 0005355 168.5594 191.5764 15.19415643643828
YAOGAN-24               
1 40310U 14072A   26166.92981484  .00000354  00000+0  58875-4 0  9996
2 40310  98.1482 304.2569 0012554 268.3704  91.6067 14.76220694623537
CBERS 4                 
1 40336U 14079A   26166.99168337 -.00000021  00000+0  73638-5 0  9999
2 40336  98.3537 223.8605 0001867  65.1009 295.0371 14.35508234603788
YAOGAN-26               
1 40362U 14088A   26166.96950529  .00014065  00000+0  27711-3 0  9998
2 40362  97.0639 167.2060 0006049  69.8496 290.3405 15.47303417637514
SMAP                    
1 40376U 15003A   26166.98587061  .00000357  00000+0  78181-4 0  9997
2 40376  98.1276 174.0974 0001310  96.2183 263.9168 14.63365736607441
KOMPSAT-3A              
1 40536U 15014A   26166.95397765  .00022109  00000+0  32089-3 0  9999
2 40536  97.6883 158.2263 0056375 178.9763 181.1615 15.53943201621628
SENTINEL-2A             
1 40697U 15028A   26166.95594774  .00000069  00000+0  43025-4 0  9995
2 40697  98.5691 241.8248 0001092  89.5409 270.5900 14.30814783573559
GAOFEN-8                
1 40701U 15030A   26166.98738417  .00020271  00000+0  41758-3 0  9998
2 40701  97.6897   0.2858 0008485 191.3522 168.7536 15.45921948611261
CARBONITE 1 (CBNT-1)    
1 40718U 15032D   26166.96848943  .00001245  00000+0  15706-3 0  9996
2 40718  97.6497 345.0860 0013287 302.5675  57.4256 14.83583260589167
YAOGAN-27               
1 40878U 15040A   26166.96426942 -.00000539  00000+0 -13085-2 0  9997
2 40878 100.1143 153.3997 0007663 213.5524 146.5105 13.16067661517507
GAOFEN-9 01             
1 40894U 15047A   26166.98293384  .00000833  00000+0  10838-3 0  9995
2 40894  97.6275 202.7324 0028322 141.5990 218.7247 14.82881786580017
YAOGAN-28               
1 41026U 15064A   26166.94699271  .00005452  00000+0  20564-3 0  9992
2 41026  97.3076 305.2334 0010500 187.5525 172.5558 15.27406775590490
YAOGAN-29               
1 41038U 15069A   26166.96338714  .00000359  00000+0  50774-4 0  9992
2 41038  98.0025 195.5940 0002628  57.0651 303.0815 14.83083694570443
KENT RIDGE 1            
1 41167U 15077B   26166.65725319  .00003746  00000+0  12259-3 0  9999
2 41167  14.9790 277.3724 0008237 216.8531 143.1225 15.23124673580868
GAOFEN-4                
1 41194U 15083A   26166.92159411 -.00000334  00000+0  00000+0 0  9998
2 41194   0.3535  83.7847 0004381 115.3692 142.5180  1.00269351 38512
JASON-3                 
1 41240U 16002A   26166.91525256 -.00000074  00000+0 -47586-4 0  9992
2 41240  66.0401 128.5090 0008530 272.8530  87.1513 12.87628039487086
SENTINEL-3A             
1 41335U 16011A   26166.88408906  .00000090  00000+0  55337-4 0  9994
2 41335  98.6249 234.2864 0001393 102.1373 257.9964 14.26739625537875
ZIYUAN 3-02 (ZY 3-02)   
1 41556U 16033A   26166.94010796  .00004469  00000+0  20158-3 0  9992
2 41556  97.3838 242.7388 0011209 294.6598  65.3470 15.21471473557794
CARTOSAT-2C             
1 41599U 16040A   26166.94078628  .00003147  00000+0  15272-3 0  9998
2 41599  97.4489 226.9359 0009949 133.8755 226.3303 15.19182769553528
